NORAD_CAT_ID,OBJECT_NAME,OBJECT_TYPE,EPOCH,MEAN_MOTION,ECCENTRICITY,INCLINATION,RA_OF_ASC_NODE,ARG_OF_PERICENTER,MEAN_ANOMALY,BSTAR,MEAN_MOTION_DOT,MEAN_MOTION_DDOT,TLE_LINE0,TLE_LINE1,TLE_LINE2,SEMIMAJOR_AXIS,PERIOD,APOGEE,PERIGEE,DECAYED
52537.0,STARLINK-3897,PAYLOAD,2023-01-12 22:05:19,15.08832005,0.0002597,53.2135,259.6291,49.5646,310.5573,7.7326e-05,9.42e-06,0.0,0 STARLINK-3897,1 52537U 22051E   23012.92036071  .00000942  00000-0  77326-4 0  9992,2 52537  53.2135 259.6291 0002597  49.5646 310.5573 15.08832005 37561,6917.905,95.438,541.566,537.9730000000002,0.0
52537.0,STARLINK-3897,PAYLOAD,2023-01-12 23:40:42,15.08836823,0.0002574,53.2137,259.3318,48.7527,311.3687,0.00015222,2.135e-05,0.0,0 STARLINK-3897,1 52537U 22051E   23012.98659872  .00002135  00000-0  15222-3 0  9990,2 52537  53.2137 259.3318 0002574  48.7527 311.3687 15.08836823 37640,6917.89,95.438,541.536,537.974,0.0
52537.0,STARLINK-3897,PAYLOAD,2023-01-13 10:48:24,15.08831405,0.0002323,53.2137,257.2503,47.1697,312.949,0.00028785,4.295e-05,0.0,0 STARLINK-3897,1 52537U 22051E   23013.45028318  .00004295  00000-0  28785-3 0  9995,2 52537  53.2137 257.2503 0002323  47.1697 312.9490 15.08831405 37646,6917.906999999999,95.438,541.379,538.165,0.0
52537.0,STARLINK-3897,PAYLOAD,2023-01-13 18:45:20,15.08836076,0.0002305,53.2133,255.7634,47.4598,312.6589,0.00029605,4.426e-05,0.0,0 STARLINK-3897,1 52537U 22051E   23013.78148391  .00004426  00000-0  29605-3 0  9993,2 52537  53.2133 255.7634 0002305  47.4598 312.6589 15.08836076 37693,6917.892,95.438,541.352,538.163,0.0
52537.0,STARLINK-3897,PAYLOAD,2023-01-14 15:25:20,15.08844978,0.0002308,53.2123,251.8965,56.9694,303.152,0.0002563,3.794e-05,0.0,0 STARLINK-3897,1 52537U 22051E   23014.64260097  .00003794  00000-0  25630-3 0  9998,2 52537  53.2123 251.8965 0002308  56.9694 303.1520 15.08844978 37893,6917.865,95.437,541.327,538.134,0.0
52537.0,STARLINK-3897,PAYLOAD,2023-01-15 10:29:58,15.08842548,0.0002944,53.2112,248.3302,49.3588,310.766,8.4535e-05,1.057e-05,0.0,0 STARLINK-3897,1 52537U 22051E   23015.43748250  .00001057  00000-0  84535-4 0  9998,2 52537  53.2112 248.3302 0002944  49.3588 310.7660 15.08842548 38016,6917.8730000000005,95.437,541.774,537.701,0.0
52537.0,STARLINK-3897,PAYLOAD,2023-01-15 21:37:40,15.08845332,0.0001945,53.2139,246.2464,61.2351,298.8837,0.00011907,1.608e-05,0.0,0 STARLINK-3897,1 52537U 22051E   23015.90116054  .00001608  00000-0  11907-3 0  9995,2 52537  53.2139 246.2464 0001945  61.2351 298.8837 15.08845332 38018,6917.8640000000005,95.437,541.075,538.384,0.0
52537.0,STARLINK-3897,PAYLOAD,2023-01-16 11:56:09,15.08825465,0.000216,53.2115,243.5683,68.6298,291.4925,-0.00011526,-2.121e-05,0.0,0 STARLINK-3897,1 52537U 22051E   23016.49733130 -.00002121  00000-0 -11526-3 0  9990,2 52537  53.2115 243.5683 0002160  68.6298 291.4925 15.08825465 38175,6917.925,95.438,541.284,538.2959999999999,0.0
52537.0,STARLINK-3897,PAYLOAD,2023-01-16 21:28:28,15.08831334,0.0001865,53.213,241.7853,69.83,290.2893,4.6785e-05,4.56e-06,0.0,0 STARLINK-3897,1 52537U 22051E   23016.89477130  .00000456  00000-0  46785-4 0  9992,2 52537  53.2130 241.7853 0001865  69.8300 290.2893 15.08831334 38161,6917.906999999999,95.438,541.062,538.482,0.0
52537.0,STARLINK-3897,PAYLOAD,2023-01-17 10:11:33,15.08834008,0.0001694,53.2135,239.4066,71.5774,288.5402,0.00012475,1.698e-05,0.0,0 STARLINK-3897,1 52537U 22051E   23017.42469220  .00001698  00000-0  12475-3 0  9990,2 52537  53.2135 239.4066 0001694  71.5774 288.5402 15.08834008 38315,6917.899,95.438,540.936,538.592,0.0
52537.0,STARLINK-3897,PAYLOAD,2023-01-17 21:19:15,15.0883862,0.0001733,53.2133,237.3248,73.3889,286.7293,0.00022226,3.251e-05,0.0,0 STARLINK-3897,1 52537U 22051E   23017.88837241  .00003251  00000-0  22226-3 0  9994,2 52537  53.2133 237.3248 0001733  73.3889 286.7293 15.08838620 38315,6917.885,95.438,540.948,538.5509999999999,0.0
52537.0,STARLINK-3897,PAYLOAD,2023-01-18 13:13:06,15.08841491,0.0001751,53.213,234.3514,72.9785,287.1399,0.0003388,5.108e-05,0.0,0 STARLINK-3897,1 52537U 22051E   23018.55077458  .00005108  00000-0  33880-3 0  9996,2 52537  53.2130 234.3514 0001751  72.9785 287.1399 15.08841491 38418,6917.876,95.437,540.952,538.53,0.0
52537.0,STARLINK-3897,PAYLOAD,2023-01-18 14:48:30,15.08843478,0.0001753,53.213,234.054,73.2761,286.8423,0.00036373,5.506e-05,0.0,0 STARLINK-3897,1 52537U 22051E   23018.61701411  .00005506  00000-0  36373-3 0  9998,2 52537  53.2130 234.0540 0001753  73.2761 286.8423 15.08843478 38493,6917.87,95.437,540.947,538.5219999999999,0.0
52537.0,STARLINK-3897,PAYLOAD,2023-01-18 21:10:02,15.08853014,0.0001732,53.213,232.8641,73.8505,286.2677,0.00048197,7.394e-05,0.0,0 STARLINK-3897,1 52537U 22051E   23018.88197067  .00007394  00000-0  48197-3 0  9997,2 52537  53.2130 232.8641 0001732  73.8505 286.2677 15.08853014 38469,6917.840999999999,95.437,540.904,538.507,0.0
52537.0,STARLINK-3897,PAYLOAD,2023-01-19 13:03:53,15.08836719,0.0001709,53.2126,229.8909,74.9552,285.1629,2.3715e-06,-2.5e-06,0.0,0 STARLINK-3897,1 52537U 22051E   23019.54437440 -.00000250  00000-0  23715-5 0  9999,2 52537  53.2126 229.8909 0001709  74.9552 285.1629 15.08836719 38564,6917.89,95.438,540.938,538.573,0.0
52537.0,STARLINK-3897,PAYLOAD,2023-01-19 17:50:03,15.08836412,0.0001699,53.2127,228.9988,73.9203,286.1976,-1.617e-05,-5.45e-06,0.0,0 STARLINK-3897,1 52537U 22051E   23019.74309445 -.00000545  00000-0 -16170-4 0  9998,2 52537  53.2127 228.9988 0001699  73.9203 286.1976 15.08836412 38669,6917.891,95.438,540.932,538.581,0.0
52537.0,STARLINK-3897,PAYLOAD,2023-01-20 06:33:08,15.08838126,0.000156,53.2127,226.6194,85.5935,274.5235,8.2385e-05,1.023e-05,0.0,0 STARLINK-3897,1 52537U 22051E   23020.27301440  .00001023  00000-0  82385-4 0  9996,2 52537  53.2127 226.6194 0001560  85.5935 274.5235 15.08838126 38675,6917.886,95.438,540.83,538.672,0.0
52537.0,STARLINK-3897,PAYLOAD,2023-01-20 22:26:59,15.08844311,0.0001629999999999,53.2151,223.6469,84.1873,275.9305,9.569e-05,1.235e-05,0.0,0 STARLINK-3897,1 52537U 22051E   23020.93541325  .00001235  00000-0  95690-4 0  9995,2 52537  53.2151 223.6469 0001630  84.1873 275.9305 15.08844311 38843,6917.866999999999,95.437,540.86,538.605,0.0
52537.0,STARLINK-3897,PAYLOAD,2023-01-22 06:14:42,15.08845455,0.0001617,53.2137,217.698,86.792,273.3257,0.00015081,2.113e-05,0.0,0 STARLINK-3897,1 52537U 22051E   23022.26021065  .00002113  00000-0  15081-3 0  9998,2 52537  53.2137 217.6980 0001617  86.7920 273.3257 15.08845455 39045,6917.8640000000005,95.437,540.847,538.61,0.0
52537.0,STARLINK-3897,PAYLOAD,2023-01-23 06:05:29,15.08838889,0.00015,53.2143,213.2367,96.1263,263.99,2.9753e-05,1.86e-06,0.0,0 STARLINK-3897,1 52537U 22051E   23023.25381561  .00000186  00000-0  29753-4 0  9998,2 52537  53.2143 213.2367 0001500  96.1263 263.9900 15.08838889 39198,6917.884,95.438,540.786,538.711,0.0
52537.0,STARLINK-3897,PAYLOAD,2023-01-23 12:27:00,15.08869,0.000175,53.2142,212.0468,101.7082,258.4107,-0.00038604,-6.432e-05,0.0,0 STARLINK-3897,1 52537U 22051E   23023.51876106 -.00006432  00000-0 -38604-3 0  9997,2 52537  53.2142 212.0468 0001750 101.7082 258.4107 15.08869000 39237,6917.792,95.436,540.867,538.446,0.0
52537.0,STARLINK-3897,PAYLOAD,2023-01-23 18:48:34,15.08841946,0.0001573,53.2143,210.8574,90.8849,269.2323,5.2606e-05,5.49e-06,0.0,0 STARLINK-3897,1 52537U 22051E   23023.78373282  .00000549  00000-0  52606-4 0  9993,2 52537  53.2143 210.8574 0001573  90.8849 269.2323 15.08841946 39277,6917.874,95.437,540.828,538.651,0.0
52537.0,STARLINK-3897,PAYLOAD,2023-01-24 20:14:44,15.08845427,0.0001488,53.2143,206.0989,90.4038,269.7125,0.00011865,1.601e-05,0.0,0 STARLINK-3897,1 52537U 22051E   23024.84356842  .00001601  00000-0  11865-3 0  9995,2 52537  53.2143 206.0989 0001488  90.4038 269.7125 15.08845427 39436,6917.8640000000005,95.437,540.758,538.6990000000001,0.0
52537.0,STARLINK-3897,PAYLOAD,2023-01-25 15:19:22,15.08835089,0.0001501,53.2144,202.5305,90.6355,269.4809,4.964e-05,5.02e-06,0.0,0 STARLINK-3897,1 52537U 22051E   23025.63845729  .00000502  00000-0  49640-4 0  9992,2 52537  53.2144 202.5305 0001501  90.6355 269.4809 15.08835089 39552,6917.895,95.438,540.799,538.722,0.0
52537.0,STARLINK-3897,PAYLOAD,2023-01-25 16:54:45,15.08834313,0.0001486999999999,53.2145,202.2332,90.2727,269.8436,4.1858999999999993e-05,3.78e-06,0.0,0 STARLINK-3897,1 52537U 22051E   23025.70469801  .00000378  00000-0  41859-4 0  9998,2 52537  53.2145 202.2332 0001487  90.2727 269.8436 15.08834313 39494,6917.898,95.438,540.7909999999999,538.734,0.0
52537.0,STARLINK-3897,PAYLOAD,2023-01-26 11:59:23,15.08841058,0.0001469,53.2147,198.6638,89.3737,270.7424,1.7234e-05,-1.4e-07,0.0,0 STARLINK-3897,1 52537U 22051E   23026.49957502 -.00000014  00000-0  17234-4 0  9993,2 52537  53.2147 198.6638 0001469  89.3737 270.7424 15.08841058 39619,6917.877,95.437,540.758,538.726,0.0
52537.0,STARLINK-3897,PAYLOAD,2023-01-26 16:45:32,15.08843057,0.0001475,53.2149,197.7718,89.3613,270.7548,3.0266e-05,1.94e-06,0.0,0 STARLINK-3897,1 52537U 22051E   23026.69829291  .00000194  00000-0  30266-4 0  9996,2 52537  53.2149 197.7718 0001475  89.3613 270.7548 15.08843057 39719,6917.871,95.437,540.756,538.716,0.0
52537.0,STARLINK-3897,PAYLOAD,2023-01-27 11:50:10,15.088316199999998,0.0001505,53.2151,194.2034,101.2123,258.9038,2.4391e-05,1e-06,0.0,0 STARLINK-3897,1 52537U 22051E   23027.49318039  .00000100  00000-0  24391-4 0  9997,2 52537  53.2151 194.2034 0001505 101.2123 258.9038 15.08831620 39769,6917.906,95.438,540.812,538.73,0.0
52537.0,STARLINK-3897,PAYLOAD,2023-01-27 15:00:57,15.088323999999998,0.0001481,53.2151,193.6087,102.8595,257.2562,2.5146e-05,1.12e-06,0.0,0 STARLINK-3897,1 52537U 22051E   23027.62566042  .00000112  00000-0  25146-4 0  9993,2 52537  53.2151 193.6087 0001481 102.8595 257.2562 15.08832400 39854,6917.904,95.438,540.793,538.744,0.0
